[{"OBJECT_NAME":"STARLINK-3845","OBJECT_ID":"2022-051J","EPOCH":"2026-03-09T10:53:34.361088","MEAN_MOTION":15.08839526,"ECCENTRICITY":0.00013814,"INCLINATION":53.218,"RA_OF_ASC_NODE":135.1811,"ARG_OF_PERICENTER":97.4268,"MEAN_ANOMALY":262.6881,"EPHEMERIS_TYPE":0,"CLASSIFICATION_TYPE":"U","NORAD_CAT_ID":52541,"ELEMENT_SET_NO":999,"REV_AT_EPOCH":21133,"BSTAR":-2.874453e-5,"MEAN_MOTION_DOT":-7.45e-6,"MEAN_MOTION_DDOT":0},{"OBJECT_NAME":"NEONSAT-1A","OBJECT_ID":"2026-019A","EPOCH":"2026-03-09T21:53:31.879392","MEAN_MOTION":15.0780294,"ECCENTRICITY":0.00137261,"INCLINATION":97.411,"RA_OF_ASC_NODE":192.4819,"ARG_OF_PERICENTER":167.4713,"MEAN_ANOMALY":192.686,"EPHEMERIS_TYPE":0,"CLASSIFICATION_TYPE":"U","NORAD_CAT_ID":67614,"ELEMENT_SET_NO":999,"REV_AT_EPOCH":585,"BSTAR":0.00027109929,"MEAN_MOTION_DOT":4.096e-5,"MEAN_MOTION_DDOT":0}]
